STARLINK-30494          
1 57970U 23151G   26068.36049035 -.00001272  00000+0 -35691-4 0  9993
2 57970  43.0027 192.4566 0001155 241.5536 118.5200 15.28417441137406
STARLINK-35038          
1 65482U 25195AA  26068.89728071  .00020277  00000+0  69506-3 0  9997
2 65482  53.1583 257.3196 0001137  95.9615 264.1515 15.30191068 30003
